OBJECT_NAME,OBJECT_ID,EPOCH,MEAN_MOTION,ECCENTRICITY,INCLINATION,RA_OF_ASC_NODE,ARG_OF_PERICENTER,MEAN_ANOMALY,EPHEMERIS_TYPE,CLASSIFICATION_TYPE,NORAD_CAT_ID,ELEMENT_SET_NO,REV_AT_EPOCH,BSTAR,MEAN_MOTION_DOT,MEAN_MOTION_DDOT
FM-6,2013-058A,2026-07-18T14:07:38.839008,1.00278676,.0001496,0.0130,35.9612,147.9640,208.0270,0,U,39360,999,4638,0,-.24E-6,0
RADUGA-1M 3,2013-062A,2026-07-18T20:07:54.028128,1.00271022,.0002048,6.0372,71.9471,282.1190,279.5133,0,U,39375,999,4642,0,.144E-5,0
SES-8,2013-071A,2026-07-18T21:02:38.601024,1.00271583,.0002763,0.0469,250.8052,223.3006,233.2215,0,U,39460,999,4474,0,-.276E-5,0
INMARSAT 5-F1,2013-073A,2026-07-18T10:06:07.890624,1.00271558,.00002603,0.0171,57.9760,270.3055,182.1060,0,U,39476,999,4589,0,.2E-6,0
TKSAT-1 (TUPAC KATARI),2013-075A,2026-07-18T10:49:38.620416,1.00270182,.00025071,0.0072,283.7369,188.2074,259.5025,0,U,39481,999,4591,0,-.202E-5,0
EXPRESS-AM5,2013-077A,2026-07-18T17:18:42.372000,1.00269666,.0000099,0.0411,234.0383,348.7143,113.4686,0,U,39487,999,4667,0,-.287E-5,0
GSAT-14,2014-001A,2026-07-18T16:59:52.760256,1.00271532,.0001992,0.0196,91.5571,115.9890,57.8865,0,U,39498,999,4569,0,-.83E-6,0
THAICOM 6,2014-002A,2026-07-18T19:19:36.686208,1.00272905,.0004432,0.0562,107.7670,18.3898,178.8521,0,U,39500,999,4577,0,-.128E-5,0
TDRS 12,2014-004A,2026-07-18T21:23:37.440384,1.00271709,.0004303,4.0090,19.6056,201.8496,355.2785,0,U,39504,999,4459,0,-.277E-5,0
ABS-2,2014-006A,2026-07-18T18:35:32.142048,1.00271922,.0003455,0.0187,53.5418,48.8824,187.9386,0,U,39508,999,4559,0,-.92E-6,0
ATHENA-FIDUS,2014-006B,2026-07-18T20:10:47.881344,1.00271817,.0001462,0.0322,100.3718,25.1761,151.5731,0,U,39509,999,4540,0,.148E-5,0
TURKSAT 4A,2014-007A,2026-07-18T20:15:34.629120,1.00269016,.00012,0.0859,278.6983,334.5680,29.2639,0,U,39522,999,4528,0,.14E-5,0
EXPRESS-AT1,2014-010A,2026-07-18T19:18:38.539872,1.00309862,.0004479,0.3374,85.3430,56.4887,150.8087,0,U,39612,999,4513,0,-.2E-6,0
EXPRESS-AT2,2014-010B,2026-07-18T20:33:09.795168,1.00272741,.000026,0.0164,58.8563,30.8002,211.2729,0,U,39613,999,4481,0,.72E-6,0
AMAZONAS 4A,2014-011A,2026-07-18T13:59:38.658048,1.00272657,.000469,0.0594,182.1322,315.3797,294.7729,0,U,39616,999,4502,0,-.26E-5,0
ASTRA 5B,2014-011B,2026-07-18T20:03:38.695392,1.00270161,.0002026,0.0689,306.2731,179.1336,135.5839,0,U,39617,999,4498,0,.13E-5,0
IRNSS-1B,2014-017A,2026-07-18T16:54:18.489024,1.00276854,.0022199,28.8702,239.8599,192.0035,173.4078,0,U,39635,999,4511,0,.121E-5,0
LUCH-5V,2014-023A,2026-07-18T20:42:10.302336,1.00272383,.0002105,5.2094,69.4150,83.3325,189.1903,0,U,39727,999,4467,0,-.277E-5,0
KAZSAT-3,2014-023B,2026-07-18T20:36:21.108096,1.00274486,.0000072,0.0087,8.2513,87.6473,208.3444,0,U,39728,999,4277,0,.54E-6,0
EUTELSAT 3B,2014-030A,2026-07-18T18:58:38.631360,1.00272169,.000426,0.0617,10.4945,105.8002,108.0347,0,U,39773,999,4438,0,.13E-6,0
ASIASAT 8 (AMOS-7),2014-046A,2026-07-18T20:54:12.182112,1.00272516,.0001585,0.0139,70.1254,32.7236,252.6718,0,U,40107,999,10246,0,-.339E-5,0
ASIASAT 6,2014-052A,2026-07-18T17:38:38.555808,1.00272380,.0000811,0.0194,81.2361,61.5362,178.3236,0,U,40141,999,4339,0,-.369E-5,0
OPTUS 10,2014-054A,2026-07-18T13:25:38.792064,1.00272146,.0001915,0.0563,292.9150,180.5423,180.3230,0,U,40146,999,4334,0,-.154E-5,0
MEASAT-3B,2014-054B,2026-07-18T20:01:38.678016,1.00272471,.0002745,0.0239,2.3721,76.9331,249.2520,0,U,40147,999,4322,0,-.248E-5,0
HIMAWARI-8,2014-060A,2026-07-18T17:18:57.346848,1.00270601,.0001207,0.0109,49.6415,114.4796,172.7993,0,U,40267,999,4307,0,-.282E-5,0
IRNSS-1C,2014-061A,2026-07-18T17:02:30.009120,1.00271766,.0021993,6.5950,88.3313,5.8558,180.9989,0,U,40269,999,4300,0,-.172E-5,0
INTELSAT 30 (IS-30),2014-062A,2026-07-18T08:59:38.556384,1.00272186,.00014873,0.0185,58.3463,331.0650,306.6267,0,U,40271,999,710,0,-.159E-5,0
ARSAT 1,2014-062B,2026-07-18T18:00:53.326944,1.00272728,.0001928,0.0558,272.1352,196.4137,26.4086,0,U,40272,999,4294,0,-.266E-5,0
EUTELSAT 53A,2014-064A,2026-07-18T20:29:58.477056,1.00275359,.0001867,0.0135,40.3903,158.6633,98.1011,0,U,40277,999,4188,0,.91E-6,0
GSAT-16,2014-078A,2026-07-18T20:31:34.304160,1.00270894,.0007509,0.0194,55.6598,40.0390,203.9155,0,U,40332,999,4242,0,.79E-6,0
DIRECTV 14,2014-078B,2026-07-18T13:59:38.658048,1.00270331,.0000308,0.0124,49.6835,326.6774,30.6839,0,U,40333,999,4235,0,-.132E-5,0
YAMAL 401,2014-082A,2026-07-18T20:22:59.585664,1.00268980,.0000475,0.0143,135.4479,300.6877,256.1901,0,U,40345,999,4223,0,-.234E-5,0
